BEIJING 1               
1 28890U 05043A   16048.40287556  .00000230  00000-0  55647-4 0  9991
2 28890  97.8251 223.3103 0014153 240.1160 119.8642 14.61090004549489
HJ-1A                   
1 33320U 08041A   16048.39957570  .00000718  00000-0  11002-3 0  9991
2 33320  97.9983 113.4830 0027048 148.2214 212.0633 14.76501098401093
HJ-1B                   
1 33321U 08041B   16048.42774090  .00000800  00000-0  12105-3 0  9997
2 33321  98.0022 114.4003 0035200 164.7581 195.4705 14.76555490401080
YAOGAN 4                
1 33446U 08061A   16048.39738887  .00000301  00000-0  50215-4 0  9998
2 33446  97.5974  68.4293 0018067  84.6797 275.6476 14.76243947388348
DEIMOS-1                
1 35681U 09041A   16048.38426968  .00000253  00000-0  48701-4 0  9996
2 35681  98.0047 304.1808 0002950  80.2042 279.9478 14.71526976351697
UK-DMC 2                
1 35683U 09041C   16048.40726922  .00000338  00000-0  63077-4 0  9991
2 35683  97.9022 297.6040 0001485  96.8630 263.2737 14.70840843351596
RISAT 1                 
1 38248U 12017A   16048.43038193  .00001743  00000-0  11434-3 0  9997
2 38248  97.5637  56.8041 0003034 268.1194 227.9133 15.08975987209983
DMC3-FM1                
1 40715U 15032A   16048.50063735  .00000273  00000-0  49677-4 0  9995
2 40715  98.0939 300.7653 0015227 250.2872 109.6686 14.73697034 32661
DMC3-FM2                
1 40716U 15032B   16048.45644133 -.00001940  00000-0 -28944-3 0  9994
2 40716  98.0627 300.6826 0012436 261.6763  98.3068 14.73663763 32661
DMC3-FM3                
1 40717U 15032C   16048.41054581  .00000276  00000-0  50080-4 0  9999
2 40717  98.0920 301.5552 0016516 251.9703 107.9697 14.73737341 32651
